NORAD_CAT_ID,OBJECT_NAME,OBJECT_TYPE,EPOCH,MEAN_MOTION,ECCENTRICITY,INCLINATION,RA_OF_ASC_NODE,ARG_OF_PERICENTER,MEAN_ANOMALY,BSTAR,MEAN_MOTION_DOT,MEAN_MOTION_DDOT,TLE_LINE0,TLE_LINE1,TLE_LINE2,SEMIMAJOR_AXIS,PERIOD,APOGEE,PERIGEE,DECAYED
55773.0,STARLINK-5833,PAYLOAD,2023-04-03 01:56:54,15.69917422,0.0003283,70.0007,69.9445,262.8107,97.2716,-3.0485e-06,-5.79e-06,0.0,0 STARLINK-5833,1 55773U 23028AJ  23093.08119063 -.00000579  00000-0 -30485-5 0  9995,2 55773  70.0007  69.9445 0003283 262.8107  97.2716 15.69917422  5421,6737.27,91.725,361.347,356.923,0.0
55773.0,STARLINK-5833,PAYLOAD,2023-04-03 08:03:55,15.69924078,0.0002625,69.9996,69.2258,271.0806,89.0089,8.3048e-06,7.86e-06,0.0,0 STARLINK-5833,1 55773U 23028AJ  23093.33605612  .00000786  00000-0  83048-5 0  9994,2 55773  69.9996  69.2258 0002625 271.0806  89.0089 15.69924078  5479,6737.251,91.724,360.885,357.348,0.0
55773.0,STARLINK-5833,PAYLOAD,2023-04-04 00:53:11,15.69928667,0.0002979,69.9992,67.252,254.4443,105.6424,1.6522e-05,1.775e-05,0.0,0 STARLINK-5833,1 55773U 23028AJ  23094.03693324  .00001775  00000-0  16522-4 0  9990,2 55773  69.9992  67.2520 0002979 254.4443 105.6424 15.69928667  5576,6737.238,91.724,361.11,357.096,0.0
55773.0,STARLINK-5833,PAYLOAD,2023-04-04 07:00:11,15.69928077,0.0003074,69.9993,66.5358,257.8325,102.2527,1.4293e-05,1.507e-05,0.0,0 STARLINK-5833,1 55773U 23028AJ  23094.29180050  .00001507  00000-0  14293-4 0  9991,2 55773  69.9993  66.5358 0003074 257.8325 102.2527 15.69928077  5629,6737.24,91.724,361.176,357.034,0.0
55773.0,STARLINK-5833,PAYLOAD,2023-04-05 01:21:14,15.69917011,0.0002878,69.9982,64.3866,250.4748,109.6137,4.3396e-06,3.09e-06,0.0,0 STARLINK-5833,1 55773U 23028AJ  23095.05641229  .00000309  00000-0  43396-5 0  9992,2 55773  69.9982  64.3866 0002878 250.4748 109.6137 15.69917011  5732,6737.271,91.725,361.075,357.197,0.0
55773.0,STARLINK-5833,PAYLOAD,2023-04-05 07:28:13,15.69923742,0.0002638,70.0006,63.6725,227.8943,132.2029,1.3621e-05,1.426e-05,0.0,0 STARLINK-5833,1 55773U 23028AJ  23095.31127304  .00001426  00000-0  13621-4 0  9992,2 55773  70.0006  63.6725 0002638 227.8943 132.2029 15.69923742  5771,6737.252,91.724,360.894,357.34,0.0
55773.0,STARLINK-5833,PAYLOAD,2023-04-05 10:31:44,15.69927157,0.0002687,69.9997,63.314,241.7449,118.3476,8.4831e-06,8.08e-06,0.0,0 STARLINK-5833,1 55773U 23028AJ  23095.43870535  .00000808  00000-0  84831-5 0  9991,2 55773  69.9997  63.3140 0002687 241.7449 118.3476 15.69927157  5804,6737.242,91.724,360.918,357.297,0.0
55773.0,STARLINK-5833,PAYLOAD,2023-04-06 06:24:30,15.69927946,0.0002871,69.9997,60.9845,248.1778,111.9113,9.7835e-06,9.64e-06,0.0,0 STARLINK-5833,1 55773U 23028AJ  23096.26702018  .00000964  00000-0  97835-5 0  9994,2 55773  69.9997  60.9845 0002871 248.1778 111.9113 15.69927946  5937,6737.24,91.724,361.039,357.171,0.0
55773.0,STARLINK-5833,PAYLOAD,2023-04-07 00:45:32,15.69900753,0.0002738,69.9999,58.8352,251.3577,108.7321,4.8616e-05,5.631e-05,0.0,0 STARLINK-5833,1 55773U 23028AJ  23097.03162906  .00005631  00000-0  48616-4 0  9994,2 55773  69.9999  58.8352 0002738 251.3577 108.7321 15.69900753  6048,6737.318,91.726,361.028,357.338,0.0
55773.0,STARLINK-5833,PAYLOAD,2023-04-07 06:52:32,15.6993668,0.0003552,69.9974,58.1164,268.2169,91.8619,8.3756e-06,7.95e-06,0.0,0 STARLINK-5833,1 55773U 23028AJ  23097.28648310  .00000795  00000-0  83756-5 0  9990,2 55773  69.9974  58.1164 0003552 268.2169  91.8619 15.69936680  6088,6737.215,91.723,361.473,356.687,0.0
55773.0,STARLINK-5833,PAYLOAD,2023-04-07 23:41:49,15.69921641,0.0002845,69.9985,56.1465,255.5385,104.5495,5.6022e-06,4.61e-06,0.0,0 STARLINK-5833,1 55773U 23028AJ  23097.98737674  .00000461  00000-0  56022-5 0  9995,2 55773  69.9985  56.1465 0002845 255.5385 104.5495 15.69921641  6192,6737.258,91.724,361.04,357.206,0.0
55773.0,STARLINK-5833,PAYLOAD,2023-04-08 08:52:19,15.69923979,0.0003093,69.9992,55.0727,254.2475,105.838,7.6336e-06,7.05e-06,0.0,0 STARLINK-5833,1 55773U 23028AJ  23098.36967531  .00000705  00000-0  76336-5 0  9996,2 55773  69.9992  55.0727 0003093 254.2475 105.8380 15.69923979  6262,6737.251,91.724,361.2,357.033,0.0
55773.0,STARLINK-5833,PAYLOAD,2023-04-09 03:13:21,15.6992897,0.0003531,69.9986,52.9246,265.2181,94.8611,4.7691e-06,3.61e-06,0.0,0 STARLINK-5833,1 55773U 23028AJ  23099.13427444  .00000361  00000-0  47691-5 0  9996,2 55773  69.9986  52.9246 0003531 265.2181  94.8611 15.69928970  6372,6737.237,91.724,361.481,356.723,0.0
55773.0,STARLINK-5833,PAYLOAD,2023-04-09 06:16:51,15.69929117,0.0003474,69.9985,52.5661,263.0231,97.0569,3.4467e-06,2.02e-06,0.0,0 STARLINK-5833,1 55773U 23028AJ  23099.26170799  .00000202  00000-0  34467-5 0  9999,2 55773  69.9985  52.5661 0003474 263.0231  97.0569 15.69929117  6401,6737.237,91.724,361.442,356.761,0.0
55773.0,STARLINK-5833,PAYLOAD,2023-04-10 08:16:39,15.6991553,0.0003068,69.9991,49.5207,272.2901,87.7944,1.4138e-06,-4.3e-07,0.0,0 STARLINK-5833,1 55773U 23028AJ  23100.34490241 -.00000043  00000-0  14138-5 0  9995,2 55773  69.9991  49.5207 0003068 272.2901  87.7944 15.69915530  6569,6737.276,91.725,361.208,357.074,0.0
55773.0,STARLINK-5833,PAYLOAD,2023-04-10 20:30:39,15.69924925,0.0003682,69.9983,48.0866,265.9953,94.0822,1.1677e-05,1.191e-05,0.0,0 STARLINK-5833,1 55773U 23028AJ  23100.85462639  .00001191  00000-0  11677-4 0  9999,2 55773  69.9983  48.0866 0003682 265.9953  94.0822 15.69924925  6646,6737.249,91.724,361.594,356.633,0.0
55773.0,STARLINK-5833,PAYLOAD,2023-04-11 05:41:10,15.69920001,0.0003611,69.9985,47.0115,266.153,93.9253,4.7015e-06,3.52e-06,0.0,0 STARLINK-5833,1 55773U 23028AJ  23101.23693174  .00000352  00000-0  47015-5 0  9996,2 55773  69.9985  47.0115 0003611 266.1530  93.9253 15.69920001  6704,6737.263,91.724,361.561,356.695,0.0
55773.0,STARLINK-5833,PAYLOAD,2023-04-12 07:40:57,15.69926776,0.000282,70.0016,43.967,271.9065,88.1808,7.3935e-06,6.77e-06,0.0,0 STARLINK-5833,1 55773U 23028AJ  23102.32011258  .00000677  00000-0  73935-5 0  9994,2 55773  70.0016  43.9670 0002820 271.9065  88.1808 15.69926776  6876,6737.243,91.724,361.008,357.209,0.0
55773.0,STARLINK-5833,PAYLOAD,2023-04-12 13:47:58,15.69922346,0.000331,70.0006,43.251,273.0979,86.9838,1.4335e-05,1.511e-05,0.0,0 STARLINK-5833,1 55773U 23028AJ  23102.57498047  .00001511  00000-0  14335-4 0  9992,2 55773  70.0006  43.2510 0003310 273.0979  86.9838 15.69922346  6927,6737.256,91.724,361.351,356.891,0.0
55773.0,STARLINK-5833,PAYLOAD,2023-04-13 05:05:29,15.69923159,0.0003368,70.0002,41.459,269.3593,90.7217,1.6676e-05,1.793e-05,0.0,0 STARLINK-5833,1 55773U 23028AJ  23103.21214712  .00001793  00000-0  16676-4 0  9991,2 55773  70.0002  41.4590 0003368 269.3593  90.7217 15.69923159  7023,6737.254,91.724,361.388,356.85,0.0
55773.0,STARLINK-5833,PAYLOAD,2023-04-14 02:30:00,15.69939579,0.0003157,70.0,38.9534,262.5458,97.5379,2.6784e-06,1.1e-06,0.0,0 STARLINK-5833,1 55773U 23028AJ  23104.10417565  .00000110  00000-0  26784-5 0  9995,2 55773  70.0000  38.9534 0003157 262.5458  97.5379 15.69939579  7152,6737.207,91.723,361.199,356.945,0.0
55773.0,STARLINK-5833,PAYLOAD,2023-04-14 05:33:31,15.69936178,0.0003636,69.9991,38.5949,268.4476,91.6304,5.0321e-06,3.92e-06,0.0,0 STARLINK-5833,1 55773U 23028AJ  23104.23161014  .00000392  00000-0  50321-5 0  9990,2 55773  69.9991  38.5949 0003636 268.4476  91.6304 15.69936178  7189,6737.217,91.723,361.531,356.632,0.0
55773.0,STARLINK-5833,PAYLOAD,2023-04-15 06:01:33,15.6992924,0.0003405,69.9989,35.7275,268.4669,91.6137,1.4986e-05,1.59e-05,0.0,0 STARLINK-5833,1 55773U 23028AJ  23105.25107778  .00001590  00000-0  14986-4 0  9997,2 55773  69.9989  35.7275 0003405 268.4669  91.6137 15.69929240  7349,6737.236,91.724,361.395,356.807,0.0
55773.0,STARLINK-5833,PAYLOAD,2023-04-15 21:19:04,15.69927253,0.0003486,69.9995,33.9349,266.8405,93.2391,-1.761e-06,-4.25e-06,0.0,0 STARLINK-5833,1 55773U 23028AJ  23105.88825113 -.00000425  00000-0 -17610-5 0  9992,2 55773  69.9995  33.9349 0003486 266.8405  93.2391 15.69927253  7440,6737.242,91.724,361.456,356.759,0.0
55773.0,STARLINK-5833,PAYLOAD,2023-04-16 04:57:51,15.69909059,0.0002843,69.9987,33.0415,260.6024,99.485,-1.6918e-05,-2.245e-05,0.0,0 STARLINK-5833,1 55773U 23028AJ  23106.20684811 -.00002245  00000-0 -16918-4 0  9998,2 55773  69.9987  33.0415 0002843 260.6024  99.4850 15.69909059  7498,6737.294,91.725,361.075,357.244,0.0
55773.0,STARLINK-5833,PAYLOAD,2023-04-16 21:47:07,15.69923749,0.000346,69.9983,31.0709,270.2836,89.7963,-5.4771e-06,-8.71e-06,0.0,0 STARLINK-5833,1 55773U 23028AJ  23106.90772336 -.00000871  00000-0 -54771-5 0  9998,2 55773  69.9983  31.0709 0003460 270.2836  89.7963 15.69923749  7604,6737.252,91.724,361.448,356.786,0.0
55773.0,STARLINK-5833,PAYLOAD,2023-04-17 03:54:06,15.69934145,0.0002631,70.0008,30.3544,253.2196,106.8711,1.221e-05,1.257e-05,0.0,0 STARLINK-5833,1 55773U 23028AJ  23107.16257962  .00001257  00000-0  12210-4 0  9998,2 55773  70.0008  30.3544 0002631 253.2196 106.8711 15.69934145  7630,6737.222,91.724,360.86,357.315,0.0
55773.0,STARLINK-5833,PAYLOAD,2023-04-17 05:25:52,15.69933062,0.0002336,70.0008,30.175,252.8479,107.2461,1.0649e-05,1.069e-05,0.0,0 STARLINK-5833,1 55773U 23028AJ  23107.22629773  .00001069  00000-0  10649-4 0  9993,2 55773  70.0008  30.1750 0002336 252.8479 107.2461 15.69933062  7654,6737.226,91.724,360.664,357.517,0.0
55773.0,STARLINK-5833,PAYLOAD,2023-04-17 20:43:24,15.69922167,0.0003676,69.9991,28.3813,267.7775,92.3,-7.7299e-06,-1.142e-05,0.0,0 STARLINK-5833,1 55773U 23028AJ  23107.86347501 -.00001142  00000-0 -77299-5 0  9998,2 55773  69.9991  28.3813 0003676 267.7775  92.3000 15.69922167  7740,6737.257,91.724,361.598,356.645,0.0
55773.0,STARLINK-5833,PAYLOAD,2023-04-18 04:22:09,15.69926457,0.0003553,69.9993,27.4889,264.5092,95.5698,1.5802e-06,-2.3e-07,0.0,0 STARLINK-5833,1 55773U 23028AJ  23108.18205531 -.00000023  00000-0  15802-5 0  9998,2 55773  69.9993  27.4889 0003553 264.5092  95.5698 15.69926457  7807,6737.244,91.724,361.503,356.716,0.0
